IRIDIUM 106             
1 41917U 17003A   25075.62331157  .00000244  00000+0  79904-4 0  9992
2 41917  86.3912 279.7175 0001784  76.7204 283.4190 14.34217965427627
IRIDIUM 103             
1 41918U 17003B   25075.68040023  .00000163  00000+0  51212-4 0  9990
2 41918  86.3912 279.5944 0002562  76.0561 284.0920 14.34216031427669
IRIDIUM 109             
1 41919U 17003C   25075.68673825  .00000009  00000+0 -37102-5 0  9996
2 41919  86.3914 279.6436 0002220  91.8033 268.3417 14.34217677427640
IRIDIUM 102             
1 41920U 17003D   25075.58525620  .00000009  00000+0 -39157-5 0  9998
2 41920  86.3912 279.6193 0001916  91.8795 268.2620 14.34217779427699
IRIDIUM 105             
1 41921U 17003E   25075.55599369  .00000070  00000+0  17906-4 0  9991
2 41921  86.3929 248.0434 0002123  89.2760 270.8679 14.34217859429548
IRIDIUM 104             
1 41922U 17003F   25075.52817439  .00000034  00000+0  49972-5 0  9999
2 41922  86.3911 279.6792 0002613  90.9917 269.1578 14.34217634427676
IRIDIUM 114             
1 41923U 17003G   25075.81359032  .00000029  00000+0  32924-5 0  9995
2 41923  86.3911 279.5446 0002296  83.5626 276.5831 14.34217762427715
IRIDIUM 108             
1 41924U 17003H   25075.56280498  .00000007  00000+0 -44406-5 0  9992
2 41924  86.3926 247.9478 0001736  87.8795 272.2599 14.34217743429533
